CCSDS_OMM_VERS = 2.0
CREATION_DATE  = 
ORIGINATOR     = 

OBJECT_NAME    = RSP-03
OBJECT_ID      = 1998-067XL
CENTER_NAME    = EARTH
REF_FRAME      = TEME
TIME_SYSTEM    = UTC
MEAN_ELEMENT_THEORY = SGP/SGP4

EPOCH          = 2026-02-11T06:39:00.643392
MEAN_MOTION    = 16.08044301
ECCENTRICITY   = .0008894
INCLINATION    = 51.6134
RA_OF_ASC_NODE = 182.1263
ARG_OF_PERICENTER = 318.6316
MEAN_ANOMALY   = 41.4023

EPHEMERIS_TYPE = 0
CLASSIFICATION_TYPE = U
NORAD_CAT_ID   = 65732
ELEMENT_SET_NO = 999
REV_AT_EPOCH   = 2274
BSTAR          = .14937517E-2
MEAN_MOTION_DOT = .12651E-1
MEAN_MOTION_DDOT = .98900721E-3

CCSDS_OMM_VERS = 2.0
CREATION_DATE  = 
ORIGINATOR     = 

OBJECT_NAME    = YOTSUBA-KULOVER
OBJECT_ID      = 1998-067XN
CENTER_NAME    = EARTH
REF_FRAME      = TEME
TIME_SYSTEM    = UTC
MEAN_ELEMENT_THEORY = SGP/SGP4

EPOCH          = 2026-02-11T10:44:46.218624
MEAN_MOTION    = 15.71636990
ECCENTRICITY   = .000421
INCLINATION    = 51.6245
RA_OF_ASC_NODE = 192.4137
ARG_OF_PERICENTER = 279.1655
MEAN_ANOMALY   = 80.8867

EPHEMERIS_TYPE = 0
CLASSIFICATION_TYPE = U
NORAD_CAT_ID   = 65941
ELEMENT_SET_NO = 999
REV_AT_EPOCH   = 1936
BSTAR          = .11347014E-2
MEAN_MOTION_DOT = .151435E-2
MEAN_MOTION_DDOT = 0

CCSDS_OMM_VERS = 2.0
CREATION_DATE  = 
ORIGINATOR     = 

OBJECT_NAME    = BOTAN
OBJECT_ID      = 1998-067XP
CENTER_NAME    = EARTH
REF_FRAME      = TEME
TIME_SYSTEM    = UTC
MEAN_ELEMENT_THEORY = SGP/SGP4

EPOCH          = 2026-02-11T19:15:13.597344
MEAN_MOTION    = 15.86770887
ECCENTRICITY   = .00075975
INCLINATION    = 51.6168
RA_OF_ASC_NODE = 186.4744
ARG_OF_PERICENTER = 307.2999
MEAN_ANOMALY   = 52.7312

EPHEMERIS_TYPE = 0
CLASSIFICATION_TYPE = U
NORAD_CAT_ID   = 65942
ELEMENT_SET_NO = 999
REV_AT_EPOCH   = 1947
BSTAR          = .14631351E-2
MEAN_MOTION_DOT = .400641E-2
MEAN_MOTION_DDOT = 0

CCSDS_OMM_VERS = 2.0
CREATION_DATE  = 
ORIGINATOR     = 

OBJECT_NAME    = E-KAGAKU-1
OBJECT_ID      = 1998-067XQ
CENTER_NAME    = EARTH
REF_FRAME      = TEME
TIME_SYSTEM    = UTC
MEAN_ELEMENT_THEORY = SGP/SGP4

EPOCH          = 2026-02-11T10:46:11.740800
MEAN_MOTION    = 15.71525219
ECCENTRICITY   = .00038379
INCLINATION    = 51.6273
RA_OF_ASC_NODE = 192.4326
ARG_OF_PERICENTER = 294.8834
MEAN_ANOMALY   = 65.1765

EPHEMERIS_TYPE = 0
CLASSIFICATION_TYPE = U
NORAD_CAT_ID   = 65943
ELEMENT_SET_NO = 999
REV_AT_EPOCH   = 1936
BSTAR          = .11492757E-2
MEAN_MOTION_DOT = .152677E-2
MEAN_MOTION_DDOT = 0

CCSDS_OMM_VERS = 2.0
CREATION_DATE  = 
ORIGINATOR     = 

OBJECT_NAME    = HRC MONOBLOCK CAMERA
OBJECT_ID      = 1998-067XR
CENTER_NAME    = EARTH
REF_FRAME      = TEME
TIME_SYSTEM    = UTC
MEAN_ELEMENT_THEORY = SGP/SGP4

EPOCH          = 2026-02-11T10:45:57.957408
MEAN_MOTION    = 15.59478533
ECCENTRICITY   = .00013871
INCLINATION    = 51.6270
RA_OF_ASC_NODE = 197.6825
ARG_OF_PERICENTER = 357.2384
MEAN_ANOMALY   = 2.8601

EPHEMERIS_TYPE = 0
CLASSIFICATION_TYPE = U
NORAD_CAT_ID   = 66052
ELEMENT_SET_NO = 999
REV_AT_EPOCH   = 1829
BSTAR          = .63937026E-3
MEAN_MOTION_DOT = .51483E-3
MEAN_MOTION_DDOT = 0

CCSDS_OMM_VERS = 2.0
CREATION_DATE  = 
ORIGINATOR     = 

OBJECT_NAME    = HTV-X1
OBJECT_ID      = 2025-241A
CENTER_NAME    = EARTH
REF_FRAME      = TEME
TIME_SYSTEM    = UTC
MEAN_ELEMENT_THEORY = SGP/SGP4

EPOCH          = 2026-02-11T21:23:25.357344
MEAN_MOTION    = 15.48551986
ECCENTRICITY   = .00110534
INCLINATION    = 51.6312
RA_OF_ASC_NODE = 199.8857
ARG_OF_PERICENTER = 89.0260
MEAN_ANOMALY   = 271.1995

EPHEMERIS_TYPE = 0
CLASSIFICATION_TYPE = U
NORAD_CAT_ID   = 66174
ELEMENT_SET_NO = 999
REV_AT_EPOCH   = 51
BSTAR          = .17123264E-3
MEAN_MOTION_DOT = .8863E-4
MEAN_MOTION_DDOT = 0

CCSDS_OMM_VERS = 2.0
CREATION_DATE  = 
ORIGINATOR     = 

OBJECT_NAME    = SZ-21 MODULE
OBJECT_ID      = 2025-246C
CENTER_NAME    = EARTH
REF_FRAME      = TEME
TIME_SYSTEM    = UTC
MEAN_ELEMENT_THEORY = SGP/SGP4

EPOCH          = 2026-02-11T06:00:48.705408
MEAN_MOTION    = 15.66534609
ECCENTRICITY   = .00025886
INCLINATION    = 41.4767
RA_OF_ASC_NODE = 5.8583
ARG_OF_PERICENTER = 291.1599
MEAN_ANOMALY   = 68.8966

EPHEMERIS_TYPE = 0
CLASSIFICATION_TYPE = U
NORAD_CAT_ID   = 66515
ELEMENT_SET_NO = 999
REV_AT_EPOCH   = 1392
BSTAR          = .36324923E-3
MEAN_MOTION_DOT = .38901E-3
MEAN_MOTION_DDOT = 0

CCSDS_OMM_VERS = 2.0
CREATION_DATE  = 
ORIGINATOR     = 

OBJECT_NAME    = SHENZHOU-22
OBJECT_ID      = 2025-272A
CENTER_NAME    = EARTH
REF_FRAME      = TEME
TIME_SYSTEM    = UTC
MEAN_ELEMENT_THEORY = SGP/SGP4

EPOCH          = 2026-02-11T22:00:47.127168
MEAN_MOTION    = 15.59517643
ECCENTRICITY   = .00042302
INCLINATION    = 41.4682
RA_OF_ASC_NODE = 4.8416
ARG_OF_PERICENTER = 66.0348
MEAN_ANOMALY   = 294.0933

EPHEMERIS_TYPE = 0
CLASSIFICATION_TYPE = U
NORAD_CAT_ID   = 66645
ELEMENT_SET_NO = 999
REV_AT_EPOCH   = 26764
BSTAR          = .33488312E-3
MEAN_MOTION_DOT = .27111E-3
MEAN_MOTION_DDOT = 0

CCSDS_OMM_VERS = 2.0
CREATION_DATE  = 
ORIGINATOR     = 

OBJECT_NAME    = SOYUZ-MS 28
OBJECT_ID      = 2025-275A
CENTER_NAME    = EARTH
REF_FRAME      = TEME
TIME_SYSTEM    = UTC
MEAN_ELEMENT_THEORY = SGP/SGP4

EPOCH          = 2026-02-11T21:23:25.357344
MEAN_MOTION    = 15.48551986
ECCENTRICITY   = .0011053
INCLINATION    = 51.6312
RA_OF_ASC_NODE = 199.8857
ARG_OF_PERICENTER = 89.0260
MEAN_ANOMALY   = 271.1995

EPHEMERIS_TYPE = 0
CLASSIFICATION_TYPE = U
NORAD_CAT_ID   = 66664
ELEMENT_SET_NO = 999
REV_AT_EPOCH   = 55233
BSTAR          = .17123E-3
MEAN_MOTION_DOT = .8863E-4
MEAN_MOTION_DDOT = 0

CCSDS_OMM_VERS = 2.0
CREATION_DATE  = 
ORIGINATOR     = 

OBJECT_NAME    = DUPLEX
OBJECT_ID      = 1998-067XS
CENTER_NAME    = EARTH
REF_FRAME      = TEME
TIME_SYSTEM    = UTC
MEAN_ELEMENT_THEORY = SGP/SGP4

EPOCH          = 2026-02-11T22:46:29.075232
MEAN_MOTION    = 15.54415576
ECCENTRICITY   = .0001301
INCLINATION    = 51.6289
RA_OF_ASC_NODE = 198.0236
ARG_OF_PERICENTER = 81.3904
MEAN_ANOMALY   = 278.7234

EPHEMERIS_TYPE = 0
CLASSIFICATION_TYPE = U
NORAD_CAT_ID   = 66906
ELEMENT_SET_NO = 999
REV_AT_EPOCH   = 1112
BSTAR          = .52329E-3
MEAN_MOTION_DOT = .34677E-3
MEAN_MOTION_DDOT = 0

CCSDS_OMM_VERS = 2.0
CREATION_DATE  = 
ORIGINATOR     = 

OBJECT_NAME    = ISS OBJECT XT
OBJECT_ID      = 1998-067XT
CENTER_NAME    = EARTH
REF_FRAME      = TEME
TIME_SYSTEM    = UTC
MEAN_ELEMENT_THEORY = SGP/SGP4

EPOCH          = 2026-02-11T15:57:45.939456
MEAN_MOTION    = 15.62295746
ECCENTRICITY   = .0001776
INCLINATION    = 51.6267
RA_OF_ASC_NODE = 197.6271
ARG_OF_PERICENTER = 270.8577
MEAN_ANOMALY   = 89.2213

EPHEMERIS_TYPE = 0
CLASSIFICATION_TYPE = U
NORAD_CAT_ID   = 66907
ELEMENT_SET_NO = 999
REV_AT_EPOCH   = 1110
BSTAR          = .12885409E-2
MEAN_MOTION_DOT = .117213E-2
MEAN_MOTION_DDOT = 0

CCSDS_OMM_VERS = 2.0
CREATION_DATE  = 
ORIGINATOR     = 

OBJECT_NAME    = ISS OBJECT XU
OBJECT_ID      = 1998-067XU
CENTER_NAME    = EARTH
REF_FRAME      = TEME
TIME_SYSTEM    = UTC
MEAN_ELEMENT_THEORY = SGP/SGP4

EPOCH          = 2026-02-11T15:56:50.830944
MEAN_MOTION    = 15.62331161
ECCENTRICITY   = .00016537
INCLINATION    = 51.6266
RA_OF_ASC_NODE = 197.6208
ARG_OF_PERICENTER = 277.2112
MEAN_ANOMALY   = 82.8694

EPHEMERIS_TYPE = 0
CLASSIFICATION_TYPE = U
NORAD_CAT_ID   = 66908
ELEMENT_SET_NO = 999
REV_AT_EPOCH   = 1110
BSTAR          = .12982248E-2
MEAN_MOTION_DOT = .118276E-2
MEAN_MOTION_DDOT = 0

